GLOBALSTAR M075 [+]     
1 37192U 10054E   23256.43141574 -.00000084  00000+0  11272-3 0  9997
2 37192  51.9972 338.5895 0000394  87.5006 352.8496 12.62261027594835
GLOBALSTAR M073 [+]     
1 37193U 10054F   23256.76830853 -.00000100  00000+0  21625-4 0  9992
2 37193  52.0040 250.8920 0000325  74.6545  97.2638 12.62267470596702
GLOBALSTAR M083 [+]     
1 37739U 11033A   23256.91089917 -.00000115  00000+0 -62589-4 0  9991
2 37739  51.9846 200.0644 0000177  64.1766 337.1252 12.62268784565741
GLOBALSTAR M088 [+]     
1 37740U 11033B   23257.07038463 -.00000067  00000+0  20332-3 0  9995
2 37740  51.9727 105.6119 0000519  59.5066 106.4225 12.62265564561598
GLOBALSTAR M091 [+]     
1 37741U 11033C   23256.83981525 -.00000087  00000+0  95371-4 0  9993
2 37741  51.9998  68.7191 0000482  73.0602  63.9926 12.62266252562067
GLOBALSTAR M085 [+]     
1 37742U 11033D   23256.83248387 -.00000099  00000+0  25644-4 0  9995
2 37742  51.9893  20.3481 0000457  99.5243  65.1408 12.62266759562571
GLOBALSTAR M081 [+]     
1 37743U 11033E   23256.66726450 -.00000108  00000+0 -25522-4 0  9996
2 37743  51.9983  23.2418 0000512  72.6442 300.5545 12.62270682562702
GLOBALSTAR M089 [+]     
1 37744U 11033F   23256.56934289 -.00000076  00000+0  15610-3 0  9996
2 37744  51.9956 337.8923 0000745  87.6071  19.9583 12.62266623563535
